{
    "name": "STARLINK-1638",
    "intlDesignator": "2020-057T",
    "catalogNumber": "46134",
    "type": "PAYLOAD",
    "classificationType": "U",
    "epoch": "2020-08-28 12:00:00.999648Z",
    "eccentricity": "0.0023815",
    "inclination": "52.9986",
    "rightAscension": "31.8655",
    "argPericenter": "78.1788",
    "meanAnomaly": "357.4048",
    "meanMotion": "15.758736",
    "meanMotionDot": "-0.01060399",
    "meanMotionDotDot": "0",
    "bStar": "-0.0074109",
    "revolutionsAtEpoch": "224",
    "elementSetNumber": "999",
    "ephemerisType": "0",
    "comment": "GENERATED VIA SPACETRACK.ORG API",
    "originator": "18 SPCS",
    "ordinal": "1",
    "file": "2810122",
    "tle": [
      "0 STARLINK-1638",
      "1 46134U 20057T   20241.50001157 -.01060399  00000-0 -74109-2 0  9993",
      "2 46134  52.9986  31.8655 0023815  78.1788 357.4048 15.75873600  2246"
    ],
    "orbitalPeriod": "91.377",
    "apogee": "358.152",
    "perigee": "326.144"
  }